[{"OBJECT_NAME":"QPS-SAR-8 (AMATERU-IV)","OBJECT_ID":"2024-149CC","EPOCH":"2026-04-27T05:25:54.873984","MEAN_MOTION":15.03614912,"ECCENTRICITY":0.00019265,"INCLINATION":97.6677,"RA_OF_ASC_NODE":196.8233,"ARG_OF_PERICENTER":281.487,"MEAN_ANOMALY":78.6139,"EPHEMERIS_TYPE":0,"CLASSIFICATION_TYPE":"U","NORAD_CAT_ID":60542,"ELEMENT_SET_NO":999,"REV_AT_EPOCH":9261,"BSTAR":0.00053938282,"MEAN_MOTION_DOT":7.319e-5,"MEAN_MOTION_DDOT":0},{"OBJECT_NAME":"ARCTIC WEATHER SATELLITE","OBJECT_ID":"2024-149CD","EPOCH":"2026-04-27T04:12:50.725440","MEAN_MOTION":14.89769765,"ECCENTRICITY":6.017e-5,"INCLINATION":97.6817,"RA_OF_ASC_NODE":189.0939,"ARG_OF_PERICENTER":284.4756,"MEAN_ANOMALY":75.6396,"EPHEMERIS_TYPE":0,"CLASSIFICATION_TYPE":"U","NORAD_CAT_ID":60543,"ELEMENT_SET_NO":999,"REV_AT_EPOCH":9170,"BSTAR":9.4692518e-5,"MEAN_MOTION_DOT":8.54e-6,"MEAN_MOTION_DDOT":0},{"OBJECT_NAME":"CAPELLA-15 (ACADIA-5)","OBJECT_ID":"2024-149CE","EPOCH":"2026-04-27T02:22:54.774048","MEAN_MOTION":14.92426865,"ECCENTRICITY":0.00025702,"INCLINATION":97.6807,"RA_OF_ASC_NODE":191.2761,"ARG_OF_PERICENTER":232.5595,"MEAN_ANOMALY":127.5391,"EPHEMERIS_TYPE":0,"CLASSIFICATION_TYPE":"U","NORAD_CAT_ID":60544,"ELEMENT_SET_NO":999,"REV_AT_EPOCH":9223,"BSTAR":0.00034917874,"MEAN_MOTION_DOT":3.523e-5,"MEAN_MOTION_DDOT":0},{"OBJECT_NAME":"HAWK-10B","OBJECT_ID":"2024-149CF","EPOCH":"2026-04-27T05:11:57.283872","MEAN_MOTION":14.96352664,"ECCENTRICITY":0.00038478,"INCLINATION":97.6822,"RA_OF_ASC_NODE":193.4131,"ARG_OF_PERICENTER":257.1933,"MEAN_ANOMALY":102.8859,"EPHEMERIS_TYPE":0,"CLASSIFICATION_TYPE":"U","NORAD_CAT_ID":60545,"ELEMENT_SET_NO":999,"REV_AT_EPOCH":9236,"BSTAR":0.00018796845,"MEAN_MOTION_DOT":2.07e-5,"MEAN_MOTION_DDOT":0},{"OBJECT_NAME":"ICEYE-X39","OBJECT_ID":"2024-149CG","EPOCH":"2026-04-27T04:04:39.922464","MEAN_MOTION":14.99596519,"ECCENTRICITY":0.0001155,"INCLINATION":97.6828,"RA_OF_ASC_NODE":194.8789,"ARG_OF_PERICENTER":194.3177,"MEAN_ANOMALY":165.8013,"EPHEMERIS_TYPE":0,"CLASSIFICATION_TYPE":"U","NORAD_CAT_ID":60546,"ELEMENT_SET_NO":999,"REV_AT_EPOCH":9247,"BSTAR":0.0004545644,"MEAN_MOTION_DOT":5.536e-5,"MEAN_MOTION_DDOT":0},{"OBJECT_NAME":"UMBRA-10","OBJECT_ID":"2024-149CH","EPOCH":"2026-04-27T05:14:56.270976","MEAN_MOTION":15.16479814,"ECCENTRICITY":0.00024491,"INCLINATION":97.6968,"RA_OF_ASC_NODE":203.6436,"ARG_OF_PERICENTER":131.4748,"MEAN_ANOMALY":228.6695,"EPHEMERIS_TYPE":0,"CLASSIFICATION_TYPE":"U","NORAD_CAT_ID":60547,"ELEMENT_SET_NO":999,"REV_AT_EPOCH":9300,"BSTAR":0.001037069,"MEAN_MOTION_DOT":0.00020163,"MEAN_MOTION_DDOT":0},{"OBJECT_NAME":"ICEYE-X33","OBJECT_ID":"2024-149CJ","EPOCH":"2026-04-27T02:25:58.577088","MEAN_MOTION":15.00901622,"ECCENTRICITY":0.00023588,"INCLINATION":97.7125,"RA_OF_ASC_NODE":196.572,"ARG_OF_PERICENTER":13.9287,"MEAN_ANOMALY":346.2002,"EPHEMERIS_TYPE":0,"CLASSIFICATION_TYPE":"U","NORAD_CAT_ID":60548,"ELEMENT_SET_NO":999,"REV_AT_EPOCH":9254,"BSTAR":0.0004065377,"MEAN_MOTION_DOT":5.117e-5,"MEAN_MOTION_DDOT":0},{"OBJECT_NAME":"ICEYE-X40","OBJECT_ID":"2024-149CK","EPOCH":"2026-04-27T04:44:43.201536","MEAN_MOTION":14.97767272,"ECCENTRICITY":0.00037313,"INCLINATION":97.6811,"RA_OF_ASC_NODE":194.5176,"ARG_OF_PERICENTER":241.8535,"MEAN_ANOMALY":118.2311,"EPHEMERIS_TYPE":0,"CLASSIFICATION_TYPE":"U","NORAD_CAT_ID":60549,"ELEMENT_SET_NO":999,"REV_AT_EPOCH":9244,"BSTAR":0.00015163261,"MEAN_MOTION_DOT":1.722e-5,"MEAN_MOTION_DDOT":0},{"OBJECT_NAME":"SATELIOT_1","OBJECT_ID":"2024-149CL","EPOCH":"2026-04-27T04:37:00.113088","MEAN_MOTION":14.97839261,"ECCENTRICITY":0.00054739,"INCLINATION":97.6754,"RA_OF_ASC_NODE":193.9452,"ARG_OF_PERICENTER":241.3189,"MEAN_ANOMALY":118.7484,"EPHEMERIS_TYPE":0,"CLASSIFICATION_TYPE":"U","NORAD_CAT_ID":60550,"ELEMENT_SET_NO":999,"REV_AT_EPOCH":9243,"BSTAR":0.00014913815,"MEAN_MOTION_DOT":1.696e-5,"MEAN_MOTION_DDOT":0},{"OBJECT_NAME":"BRO-14","OBJECT_ID":"2024-149CM","EPOCH":"2026-04-27T03:57:55.118592","MEAN_MOTION":14.96083889,"ECCENTRICITY":0.00049954,"INCLINATION":97.6885,"RA_OF_ASC_NODE":193.8598,"ARG_OF_PERICENTER":266.7414,"MEAN_ANOMALY":93.3236,"EPHEMERIS_TYPE":0,"CLASSIFICATION_TYPE":"U","NORAD_CAT_ID":60551,"ELEMENT_SET_NO":999,"REV_AT_EPOCH":9236,"BSTAR":0.00020864844,"MEAN_MOTION_DOT":2.288e-5,"MEAN_MOTION_DDOT":0},{"OBJECT_NAME":"SATELIOT_3","OBJECT_ID":"2024-149CN","EPOCH":"2026-04-26T16:48:17.194464","MEAN_MOTION":14.97844369,"ECCENTRICITY":0.00031945,"INCLINATION":97.6837,"RA_OF_ASC_NODE":194.2039,"ARG_OF_PERICENTER":243.7477,"MEAN_ANOMALY":116.3418,"EPHEMERIS_TYPE":0,"CLASSIFICATION_TYPE":"U","NORAD_CAT_ID":60552,"ELEMENT_SET_NO":999,"REV_AT_EPOCH":9237,"BSTAR":0.00026531375,"MEAN_MOTION_DOT":3.062e-5,"MEAN_MOTION_DDOT":0},{"OBJECT_NAME":"BRO-15","OBJECT_ID":"2024-149CP","EPOCH":"2026-04-27T03:30:42.996672","MEAN_MOTION":14.96031024,"ECCENTRICITY":0.0006641,"INCLINATION":97.681,"RA_OF_ASC_NODE":193.4914,"ARG_OF_PERICENTER":254.3389,"MEAN_ANOMALY":105.71,"EPHEMERIS_TYPE":0,"CLASSIFICATION_TYPE":"U","NORAD_CAT_ID":60553,"ELEMENT_SET_NO":999,"REV_AT_EPOCH":9237,"BSTAR":0.00011649877,"MEAN_MOTION_DOT":1.251e-5,"MEAN_MOTION_DDOT":0},{"OBJECT_NAME":"UM5-RIBAT","OBJECT_ID":"2024-149CQ","EPOCH":"2026-04-27T04:55:21.029664","MEAN_MOTION":15.00785403,"ECCENTRICITY":0.00019267,"INCLINATION":97.6673,"RA_OF_ASC_NODE":195.6921,"ARG_OF_PERICENTER":138.5661,"MEAN_ANOMALY":221.5709,"EPHEMERIS_TYPE":0,"CLASSIFICATION_TYPE":"U","NORAD_CAT_ID":60554,"ELEMENT_SET_NO":999,"REV_AT_EPOCH":9254,"BSTAR":0.00028925291,"MEAN_MOTION_DOT":3.612e-5,"MEAN_MOTION_DDOT":0},{"OBJECT_NAME":"UM5-EOSAT","OBJECT_ID":"2024-149CR","EPOCH":"2026-04-27T04:27:16.289280","MEAN_MOTION":15.01192818,"ECCENTRICITY":0.0005011,"INCLINATION":97.6677,"RA_OF_ASC_NODE":196.5655,"ARG_OF_PERICENTER":277.8354,"MEAN_ANOMALY":82.2301,"EPHEMERIS_TYPE":0,"CLASSIFICATION_TYPE":"U","NORAD_CAT_ID":60555,"ELEMENT_SET_NO":999,"REV_AT_EPOCH":9256,"BSTAR":0.00027184414,"MEAN_MOTION_DOT":3.428e-5,"MEAN_MOTION_DDOT":0},{"OBJECT_NAME":"LASARSAT","OBJECT_ID":"2024-247Q","EPOCH":"2026-04-27T05:06:36.750240","MEAN_MOTION":15.43279568,"ECCENTRICITY":0.00054023,"INCLINATION":44.9747,"RA_OF_ASC_NODE":187.9588,"ARG_OF_PERICENTER":1.1726,"MEAN_ANOMALY":358.9174,"EPHEMERIS_TYPE":0,"CLASSIFICATION_TYPE":"U","NORAD_CAT_ID":62391,"ELEMENT_SET_NO":999,"REV_AT_EPOCH":7543,"BSTAR":0.0008395725,"MEAN_MOTION_DOT":0.00038029,"MEAN_MOTION_DDOT":0},{"OBJECT_NAME":"CROCUBE","OBJECT_ID":"2024-247T","EPOCH":"2026-04-27T04:49:47.310528","MEAN_MOTION":15.44760331,"ECCENTRICITY":0.00051134,"INCLINATION":44.9716,"RA_OF_ASC_NODE":186.0905,"ARG_OF_PERICENTER":359.4804,"MEAN_ANOMALY":0.6079,"EPHEMERIS_TYPE":0,"CLASSIFICATION_TYPE":"U","NORAD_CAT_ID":62394,"ELEMENT_SET_NO":999,"REV_AT_EPOCH":7545,"BSTAR":0.00088197328,"MEAN_MOTION_DOT":0.00042061,"MEAN_MOTION_DDOT":0}]
